SAUDISAT 1C (SO-50)     
1 27607U 02058C   26169.36907803  .00000788  00000+0  11046-3 0  9994
2 27607  64.5511 125.3282 0075193 262.2562  97.0002 14.83049237264639
SAUDISAT 2              
1 28371U 04025F   26169.47143207  .00000182  00000+0  51780-4 0  9999
2 28371  98.5507 169.4865 0023549 294.1244  65.7491 14.56684550165935
SAUDISAT 3              
1 31118U 07012B   26169.61873191  .00000193  00000+0  39331-4 0  9999
2 31118  98.1456 120.0203 0013722 218.9952 141.0267 14.71426291 27959
PISAT                   
1 41784U 16059B   26168.96139996  .00000656  00000+0  11936-3 0  9999
2 41784  97.8178 169.3809 0028443 200.2325 159.7756 14.68984509519859
FLYING LAPTOP           
1 42831U 17042G   26169.58533311  .00002760  00000+0  21898-3 0  9990
2 42831  97.4693 325.0638 0019607 117.0555 243.2674 15.01153248486660
SALSAT                  
1 46495U 20068K   26169.45370448  .00006100  00000+0  21401-3 0  9990
2 46495  97.8850 172.5955 0007986 302.8690  57.1780 15.29814902315557
